NOAA 17                 
1 27453U 02032A   26094.28279376  .00000344  00000+0  16254-3 0  9994
2 27453  98.8588  59.1908 0011142 201.1261 158.9460 14.26204995236458
NOAA 18                 
1 28654U 05018A   26094.23318119  .00000093  00000+0  72094-4 0  9995
2 28654  98.8124 174.9785 0014216   5.8180 354.3155 14.13716377 75868
NOAA 19                 
1 33591U 09005A   26094.21892216  .00000093  00000+0  73620-4 0  9990
2 33591  98.9561 165.0270 0012922 236.8745 123.1187 14.13462167884034
SUOMI NPP               
1 37849U 11061A   26094.25925184  .00000152  00000+0  93084-4 0  9992
2 37849  98.7903  35.6628 0002009 144.6996 215.4314 14.19500925747957
NOAA 20 (JPSS-1)        
1 43013U 17073A   26094.27348635  .00000137  00000+0  86007-4 0  9993
2 43013  98.7724  34.4110 0002033 103.1408 256.9995 14.19543143433985
NOAA 21 (JPSS-2)        
1 54234U 22150A   26094.23742181  .00000157  00000+0  95270-4 0  9996
2 54234  98.7585  34.2151 0002658  62.1906 297.9539 14.19559406176050
