[{"OBJECT_NAME":"NOAA 17","OBJECT_ID":"2002-032A","EPOCH":"2026-04-04T06:47:13.380864","MEAN_MOTION":14.26204995,"ECCENTRICITY":0.00111424,"INCLINATION":98.8588,"RA_OF_ASC_NODE":59.1908,"ARG_OF_PERICENTER":201.1261,"MEAN_ANOMALY":158.946,"EPHEMERIS_TYPE":0,"CLASSIFICATION_TYPE":"U","NORAD_CAT_ID":27453,"ELEMENT_SET_NO":999,"REV_AT_EPOCH":23645,"BSTAR":0.00016253522,"MEAN_MOTION_DOT":3.44e-6,"MEAN_MOTION_DDOT":0},{"OBJECT_NAME":"NOAA 18","OBJECT_ID":"2005-018A","EPOCH":"2026-04-04T05:35:46.854816","MEAN_MOTION":14.13716377,"ECCENTRICITY":0.00142162,"INCLINATION":98.8124,"RA_OF_ASC_NODE":174.9785,"ARG_OF_PERICENTER":5.818,"MEAN_ANOMALY":354.3155,"EPHEMERIS_TYPE":0,"CLASSIFICATION_TYPE":"U","NORAD_CAT_ID":28654,"ELEMENT_SET_NO":999,"REV_AT_EPOCH":7586,"BSTAR":7.2094076e-5,"MEAN_MOTION_DOT":9.3e-7,"MEAN_MOTION_DDOT":0},{"OBJECT_NAME":"NOAA 19","OBJECT_ID":"2009-005A","EPOCH":"2026-04-04T05:15:14.874624","MEAN_MOTION":14.13462167,"ECCENTRICITY":0.00129228,"INCLINATION":98.9561,"RA_OF_ASC_NODE":165.027,"ARG_OF_PERICENTER":236.8745,"MEAN_ANOMALY":123.1187,"EPHEMERIS_TYPE":0,"CLASSIFICATION_TYPE":"U","NORAD_CAT_ID":33591,"ELEMENT_SET_NO":999,"REV_AT_EPOCH":88403,"BSTAR":7.3619715e-5,"MEAN_MOTION_DOT":9.3e-7,"MEAN_MOTION_DDOT":0},{"OBJECT_NAME":"SUOMI NPP","OBJECT_ID":"2011-061A","EPOCH":"2026-04-04T06:13:19.358976","MEAN_MOTION":14.19500925,"ECCENTRICITY":0.00020095,"INCLINATION":98.7903,"RA_OF_ASC_NODE":35.6628,"ARG_OF_PERICENTER":144.6996,"MEAN_ANOMALY":215.4314,"EPHEMERIS_TYPE":0,"CLASSIFICATION_TYPE":"U","NORAD_CAT_ID":37849,"ELEMENT_SET_NO":999,"REV_AT_EPOCH":74795,"BSTAR":9.3083831e-5,"MEAN_MOTION_DOT":1.52e-6,"MEAN_MOTION_DDOT":0},{"OBJECT_NAME":"NOAA 20 (JPSS-1)","OBJECT_ID":"2017-073A","EPOCH":"2026-04-04T06:33:49.220640","MEAN_MOTION":14.19543143,"ECCENTRICITY":0.00020333,"INCLINATION":98.7724,"RA_OF_ASC_NODE":34.411,"ARG_OF_PERICENTER":103.1408,"MEAN_ANOMALY":256.9995,"EPHEMERIS_TYPE":0,"CLASSIFICATION_TYPE":"U","NORAD_CAT_ID":43013,"ELEMENT_SET_NO":999,"REV_AT_EPOCH":43398,"BSTAR":8.6006958e-5,"MEAN_MOTION_DOT":1.37e-6,"MEAN_MOTION_DDOT":0},{"OBJECT_NAME":"NOAA 21 (JPSS-2)","OBJECT_ID":"2022-150A","EPOCH":"2026-04-04T05:41:53.244384","MEAN_MOTION":14.19559406,"ECCENTRICITY":0.0002658,"INCLINATION":98.7585,"RA_OF_ASC_NODE":34.2151,"ARG_OF_PERICENTER":62.1906,"MEAN_ANOMALY":297.9539,"EPHEMERIS_TYPE":0,"CLASSIFICATION_TYPE":"U","NORAD_CAT_ID":54234,"ELEMENT_SET_NO":999,"REV_AT_EPOCH":17605,"BSTAR":9.5270025e-5,"MEAN_MOTION_DOT":1.57e-6,"MEAN_MOTION_DDOT":0}]
